#dP2024  5 14  0  0  0.00000000     289 d+D   IGS20 FIT AIUB
## 2314 172800.00000000   300.00000000 60444 0.0000000000000
+  121   G01G02G03G04G05G06G07G08G09G10G11G12G13G14G15G16G17
+        G18G19G20G21G22G23G24G25G26G27G28G29G30G31G32R01R02
+        R03R04R05R07R08R09R11R12R13R14R15R16R17R18R19R20R21
+        R22R24R25R26E02E03E04E05E07E08E09E10E11E12E13E14E15
+        E18E19E21E24E25E26E27E30E31E33E34E36C06C07C08C09C10
+        C11C12C13C14C16C19C20C21C22C23C24C25C26C27C28C29C30
+        C32C33C34C35C36C37C38C39C40C41C42C43C44C45C46C48J02
+        J03J04  0  0  0  0  0  0  0  0  0  0  0  0  0  0  0
++         5  5  6  5  5  5  5  5  5  5  5  5  5  5  6  5  5
++         6  5  5  5  5  5  5  5  5  5  5  6  5  5  5  5  5
++         5  5  5  5  5  5  5  6  5  6  6  6  5  5  5  5  5
++         5  5  5  5  5  5  5  5  5  5  5  5  5  5  5  5  5
++         5  5  5  5  5  5  5  5  5  5  5  5  5  5  5  5  5
++         5  5  5  5  5  5  5  5  5  5  5  5  5  5  5  5  5
++         5  5  5  5  5  5  5  5  5  5  5  5  5  5  5  5  5
++         5  5  0  0  0  0  0  0  0  0  0  0  0  0  0  0  0
%c M  cc GPS ccc cccc cccc cccc cccc ccccc ccccc ccccc ccccc
%c cc cc ccc ccc cccc cccc cccc cccc ccccc ccccc ccccc ccccc
%f  1.2500000  1.025000000  0.00000000000  0.000000000000000
%f  0.0000000  0.000000000  0.00000000000  0.000000000000000
%i    0    0    0    0      0      0      0      0         0
%i    0    0    0    0      0      0      0      0         0
/* Center for Orbit Determination in Europe (CODE)                              
/* MGEX orbits and clocks for year-day 2024-1350                                
/* Middle day of a 3-day long-arc multi-GNSS solution                           
/* Systems considered: GPS/GLONASS/Galileo/BeiDou/QZSS                          
/* Product reference - DOI 10.48350/185742                                      
/* PCV:IGS20      OL/AL:FES2014b NONE     YN ORB:CoN CLK:CoN                    
*  2024  5 14 23 40  0.00000000
PG01 -25267.225796  -8269.650639  -3255.021703    273.706261
PG02 -14230.212550  21970.869943  -2974.879166   -436.107597
PG03  -6768.962993  13476.377131 -22005.931997    363.595852
PG04  -3122.505191  22724.982540 -13257.454841    361.186372
PG05  21104.688184  -6592.138596  14603.910756   -172.722864
PG06  15886.077417   3201.235346 -21006.275662    272.836144
PG07   1760.782634  18546.153847  19268.041467   -128.975520
PG08  -9530.188021  14786.265658  19660.665379    178.459145
PG09   7364.341090  25416.883846  -2001.420204    196.564221
PG10 -22891.139348 -10879.184887   8682.029885    -23.251721
PG11  21380.517785  -8519.042600 -13190.273612   -662.253533
PG12   9570.020450 -12796.476427 -21491.106455   -505.392346
PG13  13975.913019  -5846.472089  21589.524112    650.529975
PG14  20075.112908  13337.817914  11423.846958    400.869713
PG15   7687.503974 -16139.862622  19087.269903    159.091036
PG16 -23762.799386   1336.760674  11909.231046   -291.499721
PG17  12718.817319  20464.144315 -10577.403129    706.240664
PG18  -1495.819822 -17807.666725  19594.185170   -610.660595
PG19  15273.625761  12783.214496 -17941.361530    482.135640
PG20  25960.718990  -2388.254355   4712.881526    376.565308
PG21 -16824.544883  19742.625898   2218.979966    121.590334
PG22  23843.137590  10636.641557   4349.596825    -13.680748
PG23 -13319.507705 -14664.528598  17810.978571    225.560515
PG24  14452.915737 -21950.869131  -2071.863478   -469.639970
PG25  -1602.670669 -15981.223119 -21523.606543    495.726563
PG26 -26395.327823  -4321.195514  -1040.300169    152.782093
PG27 -14999.372920   2393.843302  21522.575467    -23.997170
PG28 -14755.015588  -5664.542443 -21356.849677   -244.263703
PG29  -3161.109688 -25957.120525  -4340.267983   -598.409192
PG30  11542.337692  10840.651378  21466.788986   -390.310270
PG31 -20521.907560   4421.868444 -16713.929487   -227.824772
PG32 -15120.756088 -17900.418271 -12480.930355   -618.230473
PR01  13966.083915    602.584721  21346.672384     85.383491
PR02   1781.138264 -13740.288263  21480.883714    -22.952084
PR03 -11462.139367 -20842.775741   9336.534592    100.173435
PR04 -17848.854342 -16563.112475  -7581.643976    236.427353
PR05 -14844.575775  -3407.099339 -20451.796492    131.509877
PR07  11976.916399  20840.977573  -8425.435776     82.409135
PR08  18067.637300  16159.218083   7963.722511    -75.427645
PR09 -14429.109008  11704.155253  17455.562656    186.585520
PR11  18891.879710   4591.166514  16535.734771     24.702394
PR12  24945.293758  -5057.906310  -1565.095489     40.139671
PR13  16915.397241 -10807.982025 -15749.763483    -47.377097
PR14  -3554.483030 -10652.354506 -22888.246878     26.494451
PR15 -19993.782140  -4035.280277 -15290.822334     79.805266
PR16 -24939.664925   5078.432084   1382.259942     25.586546
PR17   1550.771677 -21491.381763  13623.221343     86.825916
PR18  -7519.023987  -8894.627003  22708.879560    142.077202
PR19 -12957.050045   6281.307239  21049.097190   -276.649680
PR20 -11798.597493  22144.272758   4471.660463   -112.797364
PR21  -1881.829357  21566.797956 -13516.728475   -100.871897
PR22   8258.301896   8055.565439 -22726.859090    111.920007
PR24  10702.716620 -22821.912087  -3853.109170    -55.838506
PR25  -2105.035582  21399.815449 -13736.039104    -35.891620
PR26  18020.986428  16794.268437   6701.446913    -19.637956
PE02 -23744.218086 -13930.337747 -10898.985960    127.433271
PE03 -15855.515150 -20961.257703 -13596.019105   -113.760356
PE04  17470.537106    346.157525  23906.440452   -397.120493
PE05  -4966.951087 -28832.480350   4473.787772   4747.743310
PE07  -9104.591987  19605.274852 -20217.581687   -120.147962
PE08 -17487.103926  -1327.118603 -23837.194402   -270.786561
PE09   9078.865300 -19452.294456  20379.101633   -443.051662
PE10  23232.063526 -16459.865503  -8106.781991   -624.836036
PE11  19537.875745 -22129.313660   2293.640772   2863.449240
PE12  23211.040396  -8857.984300 -16118.105454  -1038.487540
PE13 -19811.342084  21916.991227  -1720.957004    -21.587302
PE14  -3287.613146  26911.495209  11785.028744     36.557570
PE15 -23036.804749   8398.956249  16573.420016   -102.906922
PE18  11551.216759 -16933.553701 -17964.547523    111.448264
PE19  14915.394750  22594.398470  11987.258695    -62.909468
PE21   5837.455323  17817.589467  22902.848386   -594.528714
PE24  16521.843298 -11332.097854 -21800.245314   -762.677426
PE25  -5366.419989 -17791.884789 -23036.556739      4.512816
PE26  -4442.132173  22274.383310 -18979.402959    454.528957
PE27 -16224.386278  11477.037888  21937.845018   -349.506335
PE30 -28472.931633  -1718.871488   7910.977315   -300.697872
PE31  28442.473933   1552.960626  -8046.419323    -23.513832
PE33  12298.907683  10272.206913 -24889.760676     11.680011
PE34 -12728.011754  -9801.759057  24852.533567   -111.269368
PE36   5090.707257 -22401.111396  18671.463658   -227.165750
PC06 -15400.490234  37927.021140   9515.716041    421.849364
PC07  -3018.651120  33373.624181  25802.561362   -729.512534
PC08 -13713.134679  19273.598150 -34961.506245   -115.181559
PC09 -10457.004182  36950.027959  17145.418864   -901.791562
PC10   5087.446858  36700.821706  20961.088563     17.410731
PC11  15426.134083 -14761.006247 -17903.483294    562.631637
PC12  14316.390911   6636.249934 -22985.216928   -245.710322
PC13  -5650.924290  21549.865546 -35665.315933    435.492239
PC14  17486.997571  -4191.369753  21372.092121    884.282323
PC16 -18139.539031  37440.741651   5914.607163   -521.831260
PC19  -9702.235199  12192.559987 -23125.535059   -912.913600
PC20 -21599.464707  -2946.816329 -17386.237175   -464.839367
PC21  21493.985170  17823.967915    469.838942   -967.274480
PC22   8479.933476  21297.153630 -15941.600337     -4.820283
PC23   2958.225806 -17566.196841 -21473.507383   -779.255737
PC24  26657.802476  -4224.687641   7038.497868    923.148021
PC25  20421.990644 -15937.742806 -10361.909502    399.881412
PC26  17173.949098   8869.838851  20100.614398   -291.398910
PC27 -11179.241173 -16052.446314  19881.220090    312.875482
PC28   -718.448980 -26717.416714   8025.629979    239.827643
PC29 -11540.307619  22632.107460  11537.382638    281.425035
PC30 -16399.859312   3649.025306  22265.593002    -77.443302
PC32 -21557.040283 -17696.482577   -333.461851   -623.289051
PC33   9791.417838 -12169.988823  23129.241901   -964.999772
PC34  16462.572189  -5545.549568 -21861.230556    433.748602
PC35   1566.572813  26748.915269  -7748.075941    362.974502
PC36 -20837.182406  15455.867065  10315.465160     81.561249
PC37 -16842.296846  -9358.689454 -20182.148405   -964.907238
PC38 -20634.061290  20354.875097 -30631.259390    155.094161
PC39 -19089.845063  37463.466269    460.247034     -8.386125
PC40  -6129.447738  29675.487803  29440.891012    -70.222859
PC41  -7654.104975 -21108.509462  16609.593760   -948.024530
PC42  22314.736740   4395.956809  16241.830045   -443.029337
PC43  12083.726576 -21961.997804 -12301.066760     71.633447
PC44  11883.016386  15739.577688 -19751.567292    473.383586
PC45  -3218.610535  17478.377042  21520.157540    -86.042095
PC46 -26773.803973   4704.279008  -6395.511118   -148.301494
PC48 -17540.576231   4589.106761 -21203.420176    552.111159
PJ02 -27903.421622  22189.125138  27654.999560     -0.146353
PJ03 -32891.198483  25838.392012  10301.232163      0.206018
PJ04 -22757.819525  21946.444578 -22827.111766     50.331248
EOF
